{
  "type": "FeatureCollection",
  "features": [
    {
      "type": "Feature",
      "geometry": {
        "type": "LineString",
        "coordinates": [
          [1.9404, 4.8903],
          [1.94127, 4.8894],
          [1.94079, 4.8895],
          [1.94075, 4.8894],
          [1.94051, 4.8895],
          [1.94027, 4.8892],
          [1.93931, 4.8888],
          [1.94037, 4.8888],
          [1.94037, 4.8887],
          [1.93993, 4.8892],
          [1.94078, 4.8896],
          [1.94105, 4.8889],
          [1.94179, 4.8885],
          [1.94234, 4.8882],
          [1.94241, 4.8874],
          [1.94256, 4.8874],
          [1.94258, 4.8876],
          [1.94187, 4.8871],
          [1.94188, 4.8878],
          [1.94223, 4.8879],
          [1.94227, 4.8877],
          [1.94344, 4.8874],
          [1.94316, 4.8878],
          [1.94291, 4.8886],
          [1.94208, 4.888],
          [1.94211, 4.8881],
          [1.94157, 4.8874],
          [1.94144, 4.8879],
          [1.9413, 4.889],
          [1.94171, 4.8883],
          [1.94203, 4.8887],
          [1.94129, 4.8883],
          [1.94184, 4.8879],
          [1.94208, 4.8888],
          [1.94206, 4.889],
          [1.94259, 4.8901],
          [1.94266, 4.8905],
          [1.94308, 4.8899],
          [1.94284, 4.8901],
          [1.94189, 4.8904],
          [1.94219, 4.8908],
          [1.9428, 4.8909],
          [1.94198, 4.8913],
          [1.94178, 4.8918],
          [1.94256, 4.8908],
          [1.94176, 4.8905],
          [1.94218, 4.8902],
          [1.94185, 4.8914],
          [1.94184, 4.8915],
          [1.94236, 4.8904],
          [1.94274, 4.8907],
          [1.94344, 4.8896],
          [1.9436, 4.8894],
          [1.94341, 4.8896],
          [1.9434, 4.8898],
          [1.94389, 4.89],
          [1.94426, 4.891],
          [1.94481, 4.892],
          [1.94477, 4.8914],
          [1.94522, 4.8914],
          [1.94582, 4.8913],
          [1.94607, 4.8913],
          [1.94613, 4.8913],
          [1.94606, 4.8908],
          [1.94537, 4.8906],
          [1.94514, 4.8907],
          [1.94555, 4.8905],
          [1.94634, 4.8899],
          [1.9463, 4.8894],
          [1.94534, 4.8893],
          [1.94602, 4.8893],
          [1.94615, 4.8892],
          [1.9455, 4.8896],
          [1.94548, 4.8896],
          [1.94528, 4.8892],
          [1.94555, 4.8893],
          [1.94557, 4.8895],
          [1.94641, 4.8899]
        ]
      },
      "properties": {
        "track_id": 1,
        "start_time": "2026-05-09T19:39:00",
        "end_time": "2026-05-09T20:01:04.830515",
        "distance_m": 5348.7,
        "mode": "bike"
      }
    }
  ]
}
