{
  "type": "FeatureCollection",
  "features": [
    {
      "type": "Feature",
      "properties": {},
      "geometry": {
        "type": "LineString",
        "coordinates": [
          [9.4768315, 47.1014223],
          [9.9359833, 46.9275025],
          [10.2548387, 47.0232285],
          [10.5992026, 46.9013656],
          [10.8415328, 46.8054215],
          [11.4537352, 47.1187831],
          [11.8873786, 46.9797379],
          [12.1679714, 47.1274614],
          [12.4230557, 46.7792252],
          [13.8387739, 46.4990042],
          [14.489239, 46.3935471],
          [15.1141957, 46.7005597],
          [15.8284319, 46.6743124],
          [16.0452536, 46.9187916],
          [16.4023717, 47.1014223],
          [16.4916512, 47.3180257],
          [16.6829644, 47.5595717],
          [16.4406343, 47.6885153],
          [16.5936849, 47.8000092],
          [16.7467355, 47.7142658],
          [17.0783452, 47.7400037],
          [17.065591, 48.1670962],
          [16.9125404, 48.4639619],
          [16.9125404, 48.7338713],
          [16.2110584, 48.8347157],
          [15.5861017, 48.8766743],
          [15.0121619, 49.0274345],
          [14.3489426, 48.6412526],
          [13.4816558, 48.7254585],
          [12.8184365, 48.2011111],
          [13.1245377, 47.6885152],
          [13.0097498, 47.4992891],
          [12.6271232, 47.6025882],
          [12.0404292, 47.7400036],
          [11.2496677, 47.4044194],
          [10.7905159, 47.4992891],
          [10.3951351, 47.5853858],
          [10.2038219, 47.3093785],
          [9.9359833, 47.4906717],
          [9.7319158, 47.5767825],
          [9.5788652, 47.4303099],
          [9.4765844, 47.1003021]
        ]
      }
    }
  ]
}
